{
  "norad_id": 64372,
  "name": "STARLINK-11746 [DTC]",
  "history": [
    {
      "epoch": "2026-03-28T20:00:01.999872Z",
      "apogee_km": 357.68581730105507,
      "perigee_km": 355.3402733832636,
      "latitude_deg": 30.94156648946323,
      "longitude_deg": -117.53534466466441,
      "height_km": 358.3640064351977,
      "semi_major_axis_km": 6734.6500453421595,
      "eccentricity": 0.00017414,
      "inclination_deg": 43.0001,
      "raan_deg": 328.9856,
      "arg_perigee_deg": 241.9953,
      "mean_anomaly_deg": 166.703,
      "mean_motion_rev_day": 15.70833708
    },
    {
      "epoch": "2026-03-29T00:22:20.612640Z",
      "apogee_km": 357.30529393656616,
      "perigee_km": 355.2701507854681,
      "latitude_deg": 3.425294035785513e-05,
      "longitude_deg": 135.87197598090006,
      "height_km": 356.0329963261208,
      "semi_major_axis_km": 6734.424722361016,
      "eccentricity": 0.0001511,
      "inclination_deg": 42.9986,
      "raan_deg": 327.8855,
      "arg_perigee_deg": 271.526,
      "mean_anomaly_deg": 88.5435,
      "mean_motion_rev_day": 15.70912545
    }
  ]
}